STARLINK-35405          
1 66440U 25259U   25343.33335648 -.02061119  00000+0 -47603-1 0  9997
2 66440  43.0004  67.2144 0001167 263.2847  60.0606 15.45270387  5739
STARLINK-35426          
1 66441U 25259V   25342.56460547  .00161833  00000+0  27132-2 0  9995
2 66441  43.0012  71.6764 0004241 306.6467  53.4003 15.50516656  5524
STARLINK-34724          
1 66442U 25259W   25343.00002315 -.02121366  00000+0 -42423-1 0  9991
2 66442  43.0009  69.1254 0001312 264.5323  10.4834 15.49472751  5672
STARLINK-35219          
1 66443U 25259X   25342.95039024  .00103295  00000+0  17406-2 0  9993
2 66443  43.0000  69.4110 0000960 286.7645  73.3110 15.50624735  5475
STARLINK-35360          
1 66444U 25259Y   25342.62728516  .00113963  00000+0  19177-2 0  9999
2 66444  43.0012  71.2839 0002256 271.2736  88.7866 15.50615761  5532
STARLINK-34698          
1 66445U 25259Z   25342.56356992  .00091866  00000+0  15532-2 0  9996
2 66445  43.0056  71.6672 0002429 260.1314  99.9272 15.50582419  5416
STARLINK-34986          
1 66446U 25259AA  25342.94969279  .00127053  00000+0  21306-2 0  9991
2 66446  42.9984  69.4048 0000981 344.9284  15.1546 15.50657569  5586
STARLINK-34851          
1 66447U 25259AB  25342.94901922  .00086281  00000+0  14590-2 0  9997
2 66447  42.9997  69.3985 0001046 277.5852  82.4889 15.50606148  5477
STARLINK-35355          
1 66448U 25259AC  25342.94867626  .00084482  00000+0  14292-2 0  9990
2 66448  43.0007  69.3957 0001124 293.8629  66.2114 15.50602449  5584
STARLINK-34720          
1 66449U 25259AD  25342.94833632  .00084172  00000+0  14242-2 0  9992
2 66449  42.9998  69.3926 0000625 331.1257  28.9568 15.50600010  5474
STARLINK-35334          
1 66450U 25259AE  25342.94799058  .00119681  00000+0  20122-2 0  9995
2 66450  42.9969  69.3883 0001305 271.9278  88.1433 15.50615981  5580
VIASAT-3 F2             
1 66454U 25261A   25340.71178346 -.00000073  00000+0  00000+0 0  9991
2 66454   5.5160 292.8248 2303092 186.8100 221.0538  2.24196708   518
